ONEWEB-0306             
1 49188U 21083C   24015.86534615  .00000050  00000+0  93643-4 0  9997
2 49188  87.9235 151.2068 0001364 112.9207 247.2069 13.18686416113600
ONEWEB-0307             
1 49189U 21083D   24015.88032140  .00000018  00000+0  15284-4 0  9995
2 49189  87.9017 136.0637 0001557 104.3812 255.7490 13.13469661116266
ONEWEB-0320             
1 49190U 21083E   24015.87166246  .00000045  00000+0  81990-4 0  9998
2 49190  87.9239 151.2278 0001547  98.4376 261.6932 13.18688385113569
ONEWEB-0321             
1 49191U 21083F   24015.72522810  .00000022  00000+0  22601-4 0  9995
2 49191  87.9183  90.2980 0002108 104.9890 255.1477 13.20770713120210
ONEWEB-0322             
1 49192U 21083G   24015.79938026  .00000035  00000+0  60961-4 0  9998
2 49192  87.9017 136.0686 0002094 100.8513 259.2852 13.13468389114951
ONEWEB-0324             
1 49193U 21083H   24015.85742395  .00000016  00000+0  82816-5 0  9991
2 49193  87.9237 151.2137 0001497  87.7233 272.4070 13.18688067113583
ONEWEB-0325             
1 49194U 21083J   24015.86217548 -.00000421  00000+0 -11016-2 0  9993
2 49194  87.9238 151.2249 0001564  99.7339 260.3969 13.18683702113599
ONEWEB-0326             
1 49195U 21083K   24015.80053447  .00000119  00000+0  26994-3 0  9998
2 49195  87.9236 151.2398 0000861  89.6143 270.5088 13.18685116113577
